STARLINK-1494           
1 45760U 20038AG  26068.49716211  .00096828  00000+0  67102-3 0  9999
2 45760  53.0480 152.5788 0005412   2.9213 357.1836 15.73709706317367
STARLINK-11644 [DTC]    
1 63672U 25085J   26068.57540826  .00243715  00000+0  18371-2 0  9996
2 63672  42.9989 279.1232 0001901 252.5367 107.5292 15.70976949 50226
